STARLINK-4763           
1 53805U 22111AJ  26068.81410105  .00001486  00000+0  11145-3 0  9993
2 53805  53.2160 248.6923 0001214  94.8468 265.2663 15.08839551194044
LEMUR-2-KREMPEL-BRO2    
1 63353U 25061C   26068.86379735  .00007837  00000+0  44347-3 0  9993
2 63353  97.5616  45.5365 0017925 236.8576 123.0936 15.13192951 52586
